{"type": "FeatureCollection", "features": [{"geometry": {"type": "Point", "coordinates": [121.5163916, 25.0355389]}, "type": "Feature", "id": 473325684, "properties": {"wheelchair": "no", "railway": "subway_entrance", "name:en": "Exit 6", "name:zh": "\u51fa\u53e3 6", "name": "\u51fa\u53e3 6"}}, {"geometry": {"type": "Point", "coordinates": [121.6114553, 25.0670728]}, "type": "Feature", "id": 868703351, "properties": {"railway": "subway_entrance", "name": "Donghu MRT Station"}}, {"geometry": {"type": "Point", "coordinates": [121.5937946, 25.0505613]}, "type": "Feature", "id": 870131998, "properties": {"addr:housenumber": "451", "bicycle": "yes", "addr:city": "Taipei", "is_in:zh": "\u53f0\u5317\u5e02\u5357\u6e2f\u5340", "railway": "subway_entrance", "addr:street": "\u5fe0\u5b5d\u6771\u8def6\u6bb5"}}, {"geometry": {"type": "Point", "coordinates": [121.5927431, 25.0503474]}, "type": "Feature", "id": 870132006, "properties": {"addr:housenumber": "451", "bicycle": "yes", "addr:city": "Taipei", "is_in:zh": "\u53f0\u5317\u5e02\u5357\u6e2f\u5340", "railway": "subway_entrance", "addr:street": "\u5fe0\u5b5d\u6771\u8def6\u6bb5"}}, {"geometry": {"type": "Point", "coordinates": [121.54106, 24.967501]}, "type": "Feature", "id": 1224128131, "properties": {"wheelchair": "yes", "railway": "subway_entrance", "name": "1"}}, {"geometry": {"type": "Point", "coordinates": [121.5417467, 24.9679237]}, "type": "Feature", "id": 1224128466, "properties": {"railway": "subway_entrance", "name": "2"}}, {"geometry": {"type": "Point", "coordinates": [121.5416052, 24.9821556]}, "type": "Feature", "id": 1224950079, "properties": {"name:en": "Exit 2", "name": "\u51fa\u53e3 2", "name:zh": "\u51fa\u53e3 2", "wheelchair": "no", "railway": "subway_entrance", "ref": "2"}}, {"geometry": {"type": "Point", "coordinates": [121.5409901, 24.9827813]}, "type": "Feature", "id": 1224950597, "properties": {"name:en": "Exit 1", "name": "\u51fa\u53e3 1", "name:zh": "\u51fa\u53e3 1", "wheelchair": "no", "railway": "subway_entrance", "ref": "1"}}, {"geometry": {"type": "Point", "coordinates": [121.5415809, 24.9930469]}, "type": "Feature", "id": 1224984864, "properties": {"name:en": "EXIT 2 (Jingmei Junior High School)", "name": "2\u865f\u51fa\u53e3 (\u666f\u7f8e\u570b\u4e2d)", "name:zh": "2\u865f\u51fa\u53e3 (\u666f\u7f8e\u570b\u4e2d)", "wheelchair": "no", "railway": "subway_entrance", "ref": "2"}}, {"geometry": {"type": "Point", "coordinates": [121.5408415, 24.992182]}, "type": "Feature", "id": 1224984891, "properties": {"name:en": "EXIT 1 (Jingxing General Buliding)", "name": "1\u865f\u51fa\u53e3 (\u666f\u884c\u7d9c\u5408\u5927\u6a13)", "name:zh": "1\u865f\u51fa\u53e3 (\u666f\u884c\u7d9c\u5408\u5927\u6a13)", "wheelchair": "yes", "railway": "subway_entrance", "ref": "1"}}, {"geometry": {"type": "Point", "coordinates": [121.5406663, 24.9931037]}, "type": "Feature", "id": 1224984898, "properties": {"name:en": "EXIT 3 (Jingfu Street)", "name": "3\u865f\u51fa\u53e3 (\u666f\u798f\u8857)", "name:zh": "3\u865f\u51fa\u53e3 (\u666f\u798f\u8857)", "wheelchair": "no", "railway": "subway_entrance", "ref": "3"}}, {"geometry": {"type": "Point", "coordinates": [121.5567071, 25.0410616]}, "type": "Feature", "id": 1336186415, "properties": {"railway": "subway_entrance", "ref": "2", "name": "MRT Sun Yatsen Memorial Hall Exit 2"}}, {"geometry": {"type": "Point", "coordinates": [121.5566533, 25.041671]}, "type": "Feature", "id": 1336186416, "properties": {"railway": "subway_entrance", "ref": "1", "name": "MRT Sun Yatsen Memorial Hall Exit 1"}}, {"geometry": {"type": "Point", "coordinates": [121.5579892, 25.041533]}, "type": "Feature", "id": 1336186433, "properties": {"railway": "subway_entrance", "ref": "5", "name": "MRT Sun Yatsen Memorial Hall Exit 5"}}, {"geometry": {"type": "Point", "coordinates": [121.5579355, 25.0411393]}, "type": "Feature", "id": 1336186434, "properties": {"railway": "subway_entrance", "ref": "3", "name": "MRT Sun Yatsen Memorial Hall Exit 3"}}, {"geometry": {"type": "Point", "coordinates": [121.5584193, 25.041112]}, "type": "Feature", "id": 1336186435, "properties": {"railway": "subway_entrance", "ref": "4", "name": "MRT Sun Yatsen Memorial Hall Exit 4"}}, {"geometry": {"type": "Point", "coordinates": [121.5651345, 25.0408838]}, "type": "Feature", "id": 1501340092, "properties": {"railway": "subway_entrance", "is_in:zh": "\u53f0\u7063\u53f0\u5317\u5e02", "ref": "2", "name:zh": "\u6377\u904b\u5e02\u653f\u5e9c\u7ad9", "name": "MRT Taipei City Hall"}}, {"geometry": {"type": "Point", "coordinates": [121.5016032, 25.0353574]}, "type": "Feature", "id": 2075746450, "properties": {"railway": "subway_entrance", "name": "\u9f8d\u5c71\u5bfa\u6377\u904b\u7ad93\u865f\u51fa\u53e3"}}, {"geometry": {"type": "Point", "coordinates": [121.5000173, 25.0351623]}, "type": "Feature", "id": 2075746451, "properties": {"railway": "subway_entrance", "ref": "2", "name": "\u9f8d\u5c71\u5bfa\u6377\u904b\u7ad92\u865f\u51fa\u53e3"}}, {"geometry": {"type": "Point", "coordinates": [121.4996523, 25.0354814]}, "type": "Feature", "id": 2075746454, "properties": {"railway": "subway_entrance", "name": "\u9f8d\u5c71\u5bfa\u6377\u904b\u7ad91\u865f\u51fa\u53e3"}}, {"geometry": {"type": "Point", "coordinates": [121.5234338, 25.0259862]}, "type": "Feature", "id": 2094829585, "properties": {"name:en": "EXIT 3 (Guting Market)", "name": "\u51fa\u53e3 3 (\u53e4\u4ead\u5e02\u5834)", "name:zh": "\u51fa\u53e3 3 (\u53e4\u4ead\u5e02\u5834)", "wheelchair": "no", "railway": "subway_entrance", "ref": "3"}}, {"geometry": {"type": "Point", "coordinates": [121.5671844, 25.0412655]}, "type": "Feature", "id": 2132228052, "properties": {"wheelchair": "no", "name:zh": "\u6377\u904b\u5e02\u653f\u5e9c\u7ad9\u56db\u865f\u51fa\u53e3", "railway": "subway_entrance", "bicycle": "no", "name": "\u6377\u904b\u5e02\u653f\u5e9c\u7ad9-4(MRT Taipei City Hall Stataion 4)"}}, {"geometry": {"type": "Point", "coordinates": [121.5394451, 25.0014512]}, "type": "Feature", "id": 2312395332, "properties": {"name:en": "Exit 2 (Jinglong Street)", "name": "2\u865f\u51fa\u53e3 (\u666f\u9686\u8857)", "name:zh": "2\u865f\u51fa\u53e3 (\u666f\u9686\u8857)", "wheelchair": "no", "railway": "subway_entrance", "ref": "2"}}, {"geometry": {"type": "Point", "coordinates": [121.5390482, 25.0022086]}, "type": "Feature", "id": 2312428062, "properties": {"name:en": "Exit 3 (Wugong Elementary School)", "name": "3\u865f\u51fa\u53e3 (\u6b66\u529f\u570b\u5c0f)", "name:zh": "3\u865f\u51fa\u53e3 (\u6b66\u529f\u570b\u5c0f)", "wheelchair": "no", "railway": "subway_entrance", "ref": "3"}}, {"geometry": {"type": "Point", "coordinates": [121.5386219, 25.0025382]}, "type": "Feature", "id": 2312428063, "properties": {"name:en": "Exit 4 (Wanhe Park)", "name": "4\u865f\u51fa\u53e3 (\u842c\u548c\u516c\u5712)", "name:zh": "4\u865f\u51fa\u53e3 (\u842c\u548c\u516c\u5712)", "wheelchair": "yes", "railway": "subway_entrance", "ref": "4"}}, {"geometry": {"type": "Point", "coordinates": [121.5389813, 25.0014245]}, "type": "Feature", "id": 2312428064, "properties": {"name:en": "Exit 1 (Wanlong Street)", "name": "1\u865f\u51fa\u53e3 (\u842c\u9686\u8857)", "name:zh": "1\u865f\u51fa\u53e3 (\u842c\u9686\u8857)", "wheelchair": "no", "railway": "subway_entrance", "ref": "1"}}, {"geometry": {"type": "Point", "coordinates": [121.4920273, 25.0604634]}, "type": "Feature", "id": 2325438252, "properties": {"railway": "subway_entrance", "ref": "3", "name": "\u83dc\u5bee\u7ad9\u51fa\u53e33"}}, {"geometry": {"type": "Point", "coordinates": [121.4907226, 25.0596357]}, "type": "Feature", "id": 2325438253, "properties": {"source": "Bing", "railway": "subway_entrance", "ref": "1", "name": "\u83dc\u5bee\u7ad9\u51fa\u53e31"}}, {"geometry": {"type": "Point", "coordinates": [121.4911234, 25.0593567]}, "type": "Feature", "id": 2325438255, "properties": {"source": "Bing", "railway": "subway_entrance", "ref": "2", "name": "\u83dc\u5bee\u7ad9\u51fa\u53e32"}}, {"geometry": {"type": "Point", "coordinates": [121.5274194, 25.0210532]}, "type": "Feature", "id": 2385082105, "properties": {"name:en": "EXIT 4 (Jinjiang St.)", "name": "\u51fa\u53e3 4 (\u6649\u6c5f\u8857)", "name:zh": "\u51fa\u53e3 4 (\u6649\u6c5f\u8857)", "wheelchair": "no", "railway": "subway_entrance", "ref": "4"}}, {"geometry": {"type": "Point", "coordinates": [121.527797, 25.0206899]}, "type": "Feature", "id": 2385085956, "properties": {"name:en": "EXIT 5 (Taipei Hakka Cultural Park)", "name": "\u51fa\u53e3 5 (\u5ba2\u5bb6\u6587\u5316\u4e3b\u984c\u516c\u5712)", "name:zh": "\u51fa\u53e3 5 (\u5ba2\u5bb6\u6587\u5316\u4e3b\u984c\u516c\u5712)", "wheelchair": "yes", "railway": "subway_entrance", "ref": "5"}}, {"geometry": {"type": "Point", "coordinates": [121.5286637, 25.0195923]}, "type": "Feature", "id": 2385089391, "properties": {"name:en": "EXIT 1 (Taipower Building)", "name": "\u51fa\u53e3 1 (\u53f0\u96fb\u5927\u6a13)", "name:zh": "\u51fa\u53e3 1 (\u53f0\u96fb\u5927\u6a13)", "wheelchair": "no", "railway": "subway_entrance", "ref": "1"}}, {"geometry": {"type": "Point", "coordinates": [121.5278797, 25.0212142]}, "type": "Feature", "id": 2385089393, "properties": {"name:en": "EXIT 3 (Shida Rd.)", "name": "\u51fa\u53e3 3 (\u5e2b\u5927\u8def)", "name:zh": "\u51fa\u53e3 3 (\u5e2b\u5927\u8def)", "wheelchair": "no", "railway": "subway_entrance", "ref": "3"}}, {"geometry": {"type": "Point", "coordinates": [121.5290494, 25.0201972]}, "type": "Feature", "id": 2385089394, "properties": {"name:en": "EXIT 2 (Guting Elementary School)", "name": "\u51fa\u53e3 2 (\u53e4\u4ead\u570b\u5c0f)", "name:zh": "\u51fa\u53e3 2 (\u53e4\u4ead\u570b\u5c0f)", "wheelchair": "no", "railway": "subway_entrance", "ref": "2"}}, {"geometry": {"type": "Point", "coordinates": [121.4608855, 25.039022]}, "type": "Feature", "id": 2399952145, "properties": {"railway": "subway_entrance"}}, {"geometry": {"type": "Point", "coordinates": [121.4607003, 25.0395709]}, "type": "Feature", "id": 2399952146, "properties": {"railway": "subway_entrance"}}, {"geometry": {"type": "Point", "coordinates": [121.4620379, 25.0397135]}, "type": "Feature", "id": 2399952148, "properties": {"railway": "subway_entrance"}}, {"geometry": {"type": "Point", "coordinates": [121.4622696, 25.0403788]}, "type": "Feature", "id": 2399952151, "properties": {"railway": "subway_entrance"}}, {"geometry": {"type": "Point", "coordinates": [121.4625222, 25.0131541]}, "type": "Feature", "id": 2405739533, "properties": {"railway": "subway_entrance", "name": "\u6377\u904b\u51fa\u53e32"}}, {"geometry": {"type": "Point", "coordinates": [121.4618134, 25.0133446]}, "type": "Feature", "id": 2405739562, "properties": {"railway": "subway_entrance", "name": "\u6377\u904b\u51fa\u53e31"}}, {"geometry": {"type": "Point", "coordinates": [121.4625917, 25.0145759]}, "type": "Feature", "id": 2405739607, "properties": {"wheelchair": "limited", "railway": "subway_entrance", "name": "\u6377\u904b\u51fa\u53e33"}}, {"geometry": {"type": "Point", "coordinates": [121.5087156, 25.041837]}, "type": "Feature", "id": 2406854840, "properties": {"railway": "subway_entrance", "exit_to": "\u9060\u6771\u767e\u8ca8", "ref": "3"}}, {"geometry": {"type": "Point", "coordinates": [121.5076176, 25.0421049]}, "type": "Feature", "id": 2406854847, "properties": {"railway": "subway_entrance", "ref": "1", "name": "\u897f\u9580\u6377\u904b\u7ad91\u865f\u51fa\u53e3"}}, {"geometry": {"type": "Point", "coordinates": [121.5088202, 25.0422529]}, "type": "Feature", "id": 2406854854, "properties": {"railway": "subway_entrance", "ref": "4"}}, {"geometry": {"type": "Point", "coordinates": [121.5077011, 25.0425286]}, "type": "Feature", "id": 2406854856, "properties": {"railway": "subway_entrance", "ref": "6", "name": "\u897f\u9580\u6377\u904b\u7ad96\u865f\u51fa\u53e3"}}, {"geometry": {"type": "Point", "coordinates": [121.5203942, 25.0524477]}, "type": "Feature", "id": 2407886711, "properties": {"railway": "subway_entrance", "ref": "1"}}, {"geometry": {"type": "Point", "coordinates": [121.6155208, 25.0600552]}, "type": "Feature", "id": 2417265249, "properties": {"railway": "subway_entrance", "name": "\u51fa\u53e33"}}, {"geometry": {"type": "Point", "coordinates": [121.5329643, 25.0581317]}, "type": "Feature", "id": 2441331728, "properties": {"name:en": "EXIT 1 (Minsheng E. Rd.)", "name": "\u51fa\u53e3 1 (\u6c11\u751f\u6771\u8def)", "name:zh": "\u51fa\u53e3 1 (\u6c11\u751f\u6771\u8def)", "wheelchair": "no", "railway": "subway_entrance", "ref": "1"}}, {"geometry": {"type": "Point", "coordinates": [121.5193942, 25.0625812]}, "type": "Feature", "id": 2441345996, "properties": {"railway": "subway_entrance", "ref": "1"}}, {"geometry": {"type": "Point", "coordinates": [121.4831352, 25.0552456]}, "type": "Feature", "id": 2457951069, "properties": {"railway": "subway_entrance"}}, {"geometry": {"type": "Point", "coordinates": [121.4844799, 25.0555356]}, "type": "Feature", "id": 2457951075, "properties": {"railway": "subway_entrance"}}, {"geometry": {"type": "Point", "coordinates": [121.4849185, 25.0560829]}, "type": "Feature", "id": 2457951078, "properties": {"railway": "subway_entrance"}}, {"geometry": {"type": "Point", "coordinates": [121.4681055, 25.0223163]}, "type": "Feature", "id": 2461753319, "properties": {"railway": "subway_entrance"}}, {"geometry": {"type": "Point", "coordinates": [121.4685632, 25.0229737]}, "type": "Feature", "id": 2461753324, "properties": {"railway": "subway_entrance"}}, {"geometry": {"type": "Point", "coordinates": [121.4675466, 25.0231127]}, "type": "Feature", "id": 2461753325, "properties": {"railway": "subway_entrance"}}, {"geometry": {"type": "Point", "coordinates": [121.4681323, 25.0241532]}, "type": "Feature", "id": 2461753331, "properties": {"railway": "subway_entrance"}}, {"geometry": {"type": "Point", "coordinates": [121.4226146, 25.0286676]}, "type": "Feature", "id": 2480231490, "properties": {"railway": "subway_entrance"}}, {"geometry": {"type": "Point", "coordinates": [121.4223677, 25.0290001]}, "type": "Feature", "id": 2480231491, "properties": {"railway": "subway_entrance"}}, {"geometry": {"type": "Point", "coordinates": [121.4352586, 25.0323077]}, "type": "Feature", "id": 2480231492, "properties": {"railway": "subway_entrance"}}, {"geometry": {"type": "Point", "coordinates": [121.4366034, 25.0327206]}, "type": "Feature", "id": 2480231493, "properties": {"railway": "subway_entrance"}}, {"geometry": {"type": "Point", "coordinates": [121.4352177, 25.0329012]}, "type": "Feature", "id": 2480231494, "properties": {"railway": "subway_entrance"}}, {"geometry": {"type": "Point", "coordinates": [121.4365782, 25.033168]}, "type": "Feature", "id": 2480231495, "properties": {"railway": "subway_entrance"}}, {"geometry": {"type": "Point", "coordinates": [121.4525762, 25.0360186]}, "type": "Feature", "id": 2480231500, "properties": {"railway": "subway_entrance"}}, {"geometry": {"type": "Point", "coordinates": [121.4524244, 25.0362996]}, "type": "Feature", "id": 2480231501, "properties": {"railway": "subway_entrance"}}, {"geometry": {"type": "Point", "coordinates": [121.4109282, 25.0210542]}, "type": "Feature", "id": 2481340623, "properties": {"railway": "subway_entrance", "name": "\u6377\u904b\u8ff4\u9f8d\u7ad92\u865f\u51fa\u53e3"}}, {"geometry": {"type": "Point", "coordinates": [121.41132, 25.0218462]}, "type": "Feature", "id": 2481340627, "properties": {"railway": "subway_entrance", "name": "\u6377\u904b\u8ff4\u9f8d\u7ad91\u865f\u51fa\u53e3"}}, {"geometry": {"type": "Point", "coordinates": [121.4124653, 25.022449]}, "type": "Feature", "id": 2481340630, "properties": {"railway": "subway_entrance", "name": "\u6377\u904b\u8ff4\u9f8d\u7ad93\u865f\u51fa\u53e3"}}, {"geometry": {"type": "Point", "coordinates": [121.4357989, 24.9659771]}, "type": "Feature", "id": 2494951251, "properties": {"ref": "2", "railway": "subway_entrance", "name:en": "Yongning MRT station Exit 2", "name:zh": "\u6c38\u5be7\u6377\u904b\u7ad92\u865f\u51fa\u53e3", "name": "\u6c38\u5be7\u6377\u904b\u7ad92\u865f\u51fa\u53e3"}}, {"geometry": {"type": "Point", "coordinates": [121.4355691, 24.9666697]}, "type": "Feature", "id": 2494951252, "properties": {"ref": "1", "railway": "subway_entrance", "name:en": "Yongning MRT station Exit 1", "name:zh": "\u6c38\u5be7\u6377\u904b\u7ad91\u865f\u51fa\u53e3", "name": "\u6c38\u5be7\u6377\u904b\u7ad91\u865f\u51fa\u53e3"}}, {"geometry": {"type": "Point", "coordinates": [121.4371063, 24.9672149]}, "type": "Feature", "id": 2494951253, "properties": {"ref": "3", "railway": "subway_entrance", "name:en": "Yongning MRT station Exit 3", "name:zh": "\u6c38\u5be7\u6377\u904b\u7ad93\u865f\u51fa\u53e3", "name": "\u6c38\u5be7\u6377\u904b\u7ad93\u865f\u51fa\u53e3"}}, {"geometry": {"type": "Point", "coordinates": [121.4368392, 24.9675096]}, "type": "Feature", "id": 2494951254, "properties": {"ref": "4", "railway": "subway_entrance", "name:en": "Yongning MRT station Exit 4", "name:zh": "\u6c38\u5be7\u6377\u904b\u7ad94\u865f\u51fa\u53e3", "name": "\u6c38\u5be7\u6377\u904b\u7ad94\u865f\u51fa\u53e3"}}, {"geometry": {"type": "Point", "coordinates": [121.5005859, 25.0630542]}, "type": "Feature", "id": 2498534021, "properties": {"railway": "subway_entrance"}}, {"geometry": {"type": "Point", "coordinates": [121.5558352, 25.0843952]}, "type": "Feature", "id": 2511203020, "properties": {"railway": "subway_entrance", "name": "\u6377\u904b\u51fa\u53e33"}}, {"geometry": {"type": "Point", "coordinates": [121.5551944, 25.0845962]}, "type": "Feature", "id": 2511203021, "properties": {"railway": "subway_entrance", "name": "\u6377\u904b\u51fa\u53e32"}}, {"geometry": {"type": "Point", "coordinates": [121.5552501, 25.0852668]}, "type": "Feature", "id": 2511203022, "properties": {"railway": "subway_entrance", "name": "\u6377\u904b\u51fa\u53e31"}}, {"geometry": {"type": "Point", "coordinates": [121.5671434, 25.0819375]}, "type": "Feature", "id": 2511220962, "properties": {"railway": "subway_entrance", "name": "\u6377\u904b\u51fa\u5165\u53e32"}}, {"geometry": {"type": "Point", "coordinates": [121.5668, 25.0823578]}, "type": "Feature", "id": 2511220967, "properties": {"railway": "subway_entrance", "name": "\u6377\u904b\u51fa\u5165\u53e31"}}, {"geometry": {"type": "Point", "coordinates": [121.5748413, 25.0800281]}, "type": "Feature", "id": 2511224837, "properties": {"railway": "subway_entrance", "name": "\u6377\u904b\u51fa\u5165\u53e32"}}, {"geometry": {"type": "Point", "coordinates": [121.5757774, 25.0801253]}, "type": "Feature", "id": 2511224954, "properties": {"railway": "subway_entrance", "name": "\u6377\u904b\u51fa\u5165\u53e31"}}, {"geometry": {"type": "Point", "coordinates": [121.5857659, 25.0787138]}, "type": "Feature", "id": 2511228131, "properties": {"railway": "subway_entrance", "name": "\u6377\u904b\u51fa\u5165\u53e31"}}, {"geometry": {"type": "Point", "coordinates": [121.5846528, 25.0783324]}, "type": "Feature", "id": 2511228637, "properties": {"railway": "subway_entrance", "name": "\u6377\u904b\u51fa\u5165\u53e32"}}, {"geometry": {"type": "Point", "coordinates": [121.496757, 25.0706543]}, "type": "Feature", "id": 2518475589, "properties": {"railway": "subway_entrance"}}, {"geometry": {"type": "Point", "coordinates": [121.5327057, 25.0510912]}, "type": "Feature", "id": 2564616739, "properties": {"railway": "subway_entrance", "ref": "3"}}, {"geometry": {"type": "Point", "coordinates": [121.5327084, 25.0513077]}, "type": "Feature", "id": 2564616740, "properties": {"railway": "subway_entrance", "ref": "2"}}, {"geometry": {"type": "Point", "coordinates": [121.5331759, 25.0514991]}, "type": "Feature", "id": 2564616741, "properties": {"railway": "subway_entrance", "ref": "4"}}, {"geometry": {"type": "Point", "coordinates": [121.5331635, 25.0524544]}, "type": "Feature", "id": 2564616742, "properties": {"railway": "subway_entrance", "ref": "7", "name": "\u6377\u904b\u677e\u6c5f\u5357\u4eac7\u865f\u51fa\u53e3"}}, {"geometry": {"type": "Point", "coordinates": [121.5327398, 25.0526194]}, "type": "Feature", "id": 2564616743, "properties": {"railway": "subway_entrance", "ref": "8", "name": "\u6377\u904b\u677e\u6c5f\u5357\u4eac8\u865f\u51fa\u53e3"}}, {"geometry": {"type": "Point", "coordinates": [121.5158286, 25.0345833]}, "type": "Feature", "id": 2599387522, "properties": {"wheelchair": "no", "railway": "subway_entrance", "name": "\u51fa\u53e3 7"}}, {"geometry": {"type": "Point", "coordinates": [121.4735819, 25.0856572]}, "type": "Feature", "id": 2608084898, "properties": {"wheelchair": "no", "railway": "subway_entrance", "name": "\u51fa\u53e3 2"}}, {"geometry": {"type": "Point", "coordinates": [121.472703, 25.0856805]}, "type": "Feature", "id": 2608084901, "properties": {"wheelchair": "yes", "railway": "subway_entrance", "name": "\u51fa\u53e3 1"}}, {"geometry": {"type": "Point", "coordinates": [121.4735061, 25.0310465]}, "type": "Feature", "id": 2615789340, "properties": {"wikipedia": "zh:%E6%B1%9F%E5%AD%90%E7%BF%A0%E7%AB%99", "railway": "subway_entrance", "ref": "5", "name": "\u51fa\u53e35 (\u6587\u8056\u8857)"}}, {"geometry": {"type": "Point", "coordinates": [121.4732252, 25.0311718]}, "type": "Feature", "id": 2615814286, "properties": {"railway": "subway_entrance", "ref": "6", "name": "\u51fa\u53e36 (\u6c5f\u7fe0\u570b\u5c0f)"}}, {"geometry": {"type": "Point", "coordinates": [121.5109605, 25.0353029]}, "type": "Feature", "id": 2618719363, "properties": {"wheelchair": "yes", "railway": "subway_entrance", "name": "\u51fa\u53e3 3"}}, {"geometry": {"type": "Point", "coordinates": [121.5113936, 25.0352291]}, "type": "Feature", "id": 2618719367, "properties": {"wheelchair": "no", "railway": "subway_entrance", "name": "\u51fa\u53e3 4"}}, {"geometry": {"type": "Point", "coordinates": [121.5098783, 25.0357182]}, "type": "Feature", "id": 2618719370, "properties": {"wheelchair": "no", "railway": "subway_entrance", "name": "\u51fa\u53e3 2"}}, {"geometry": {"type": "Point", "coordinates": [121.50973, 25.0364222]}, "type": "Feature", "id": 2618719378, "properties": {"wheelchair": "no", "railway": "subway_entrance", "name": "\u51fa\u53e3 1"}}, {"geometry": {"type": "Point", "coordinates": [121.5576888, 25.0451584]}, "type": "Feature", "id": 2620036458, "properties": {"railway": "subway_entrance", "name": "\u5149\u5fa9\u7dca\u6025\u505c\u9760\u7ad9"}}, {"geometry": {"type": "Point", "coordinates": [121.5440703, 25.0449345]}, "type": "Feature", "id": 2620036459, "properties": {"railway": "subway_entrance", "name": "\u5fa9\u8208\u7dca\u6025\u505c\u9760\u7ad9"}}, {"geometry": {"type": "Point", "coordinates": [121.5152147, 25.1150256]}, "type": "Feature", "id": 2622769196, "properties": {"railway": "subway_entrance", "name:en": "Exit 1", "ref": "1", "name": "\u4e00\u865f\u51fa\u53e3"}}, {"geometry": {"type": "Point", "coordinates": [121.516191, 25.1136145]}, "type": "Feature", "id": 2622770959, "properties": {"railway": "subway_entrance", "name:en": "Exit 2", "ref": "2", "name": "\u4e8c\u865f\u51fa\u53e3"}}, {"geometry": {"type": "Point", "coordinates": [121.4723111, 25.0296277]}, "type": "Feature", "id": 2638382213, "properties": {"railway": "subway_entrance", "ref": "3", "name": "\u51fa\u53e33 (\u65b0\u5317\u5e02\u8b70\u6703)"}}, {"geometry": {"type": "Point", "coordinates": [121.5157611, 25.0409483]}, "type": "Feature", "id": 2652063385, "properties": {"wheelchair": "no", "railway": "subway_entrance", "name": "\u51fa\u53e3 1"}}, {"geometry": {"type": "Point", "coordinates": [121.5166338, 25.041205]}, "type": "Feature", "id": 2652063388, "properties": {"wheelchair": "yes", "railway": "subway_entrance", "name": "\u51fa\u53e3 2"}}, {"geometry": {"type": "Point", "coordinates": [121.5167653, 25.0428887]}, "type": "Feature", "id": 2652063391, "properties": {"wheelchair": "yes", "railway": "subway_entrance", "name": "\u51fa\u53e3 3"}}, {"geometry": {"type": "Point", "coordinates": [121.51626, 25.042766]}, "type": "Feature", "id": 2652063392, "properties": {"wheelchair": "no", "railway": "subway_entrance", "name": "\u51fa\u53e3 4"}}, {"geometry": {"type": "Point", "coordinates": [121.473173, 25.1311263]}, "type": "Feature", "id": 2713678334, "properties": {"railway": "subway_entrance"}}, {"geometry": {"type": "Point", "coordinates": [121.4733635, 25.1312288]}, "type": "Feature", "id": 2713678336, "properties": {"railway": "subway_entrance"}}, {"geometry": {"type": "Point", "coordinates": [121.5650528, 25.033374]}, "type": "Feature", "id": 2718780534, "properties": {"railway": "subway_entrance", "ref": "4", "name": "\u53f0\u5317101/\u4e16\u8cbf\u7ad94\u865f\u51fa\u53e3", "level": "-1"}}, {"geometry": {"type": "Point", "coordinates": [121.5247806, 25.0446049]}, "type": "Feature", "id": 2737014061, "properties": {"name:en": "EXIT 6 (Shandao Temple)", "name": "\u51fa\u53e3 6 (\u5584\u5c0e\u5bfa)", "name:zh": "\u51fa\u53e3 6 (\u5584\u5c0e\u5bfa)", "wheelchair": "no", "railway": "subway_entrance", "ref": "6"}}, {"geometry": {"type": "Point", "coordinates": [121.5230854, 25.0450042]}, "type": "Feature", "id": 2737014090, "properties": {"name:en": "EXIT 1 (National Police Agency)", "name": "\u51fa\u53e3 1 (\u8b66\u653f\u7f72)", "name:zh": "\u51fa\u53e3 1 (\u8b66\u653f\u7f72)", "wheelchair": "no", "railway": "subway_entrance", "ref": "1"}}, {"geometry": {"type": "Point", "coordinates": [121.5230156, 25.0447271]}, "type": "Feature", "id": 2737317118, "properties": {"name:en": "EXIT 2 (Sheraton Grande Taipei Hotel)", "name": "\u51fa\u53e3 2 (\u53f0\u5317\u559c\u4f86\u767b\u5927\u98ef\u5e97)", "name:zh": "\u51fa\u53e3 2 (\u53f0\u5317\u559c\u4f86\u767b\u5927\u98ef\u5e97)", "wheelchair": "no", "railway": "subway_entrance", "ref": "2"}}, {"geometry": {"type": "Point", "coordinates": [121.5242449, 25.0442193]}, "type": "Feature", "id": 2744857478, "properties": {"name:en": "EXIT 4 (Qingdao Community)", "name": "\u51fa\u53e3 4 (\u9752\u5cf6\u793e\u5340)", "name:zh": "\u51fa\u53e3 4 (\u9752\u5cf6\u793e\u5340)", "wheelchair": "no", "railway": "subway_entrance", "ref": "4"}}, {"geometry": {"type": "Point", "coordinates": [121.5236685, 25.0445456]}, "type": "Feature", "id": 2757790370, "properties": {"name:en": "EXIT 3 (Chenggong High School)", "name": "\u51fa\u53e3 3 (\u6210\u529f\u9ad8\u4e2d)", "name:zh": "\u51fa\u53e3 3 (\u6210\u529f\u9ad8\u4e2d)", "wheelchair": "yes", "railway": "subway_entrance", "ref": "3"}}, {"geometry": {"type": "Point", "coordinates": [121.5155303, 25.0142666]}, "type": "Feature", "id": 2763592450, "properties": {"railway": "subway_entrance", "name": "2"}}, {"geometry": {"type": "Point", "coordinates": [121.5154562, 25.0128552]}, "type": "Feature", "id": 2763592451, "properties": {"railway": "subway_entrance", "name": "1"}}, {"geometry": {"type": "Point", "coordinates": [121.5320982, 25.0421284]}, "type": "Feature", "id": 2776684638, "properties": {"name:en": "Exit 2 (Zhongxiao Park)", "name": "\u51fa\u53e3 2 (\u5fe0\u5b5d\u516c\u5712)", "name:zh": "\u51fa\u53e3 2 (\u5fe0\u5b5d\u516c\u5712)", "wheelchair": "yes", "railway": "subway_entrance", "ref": "2"}}, {"geometry": {"type": "Point", "coordinates": [121.5318588, 25.0427391]}, "type": "Feature", "id": 2776684639, "properties": {"name:en": "Exit 1 (Zhongxiao Elementary School)", "name": "\u51fa\u53e3 1 (\u5fe0\u5b5d\u570b\u5c0f)", "name:zh": "\u51fa\u53e3 1 (\u5fe0\u5b5d\u570b\u5c0f)", "wheelchair": "no", "railway": "subway_entrance", "ref": "1"}}, {"geometry": {"type": "Point", "coordinates": [121.5514685, 25.0412974]}, "type": "Feature", "id": 2787383688, "properties": {"railway": "subway_entrance", "ref": "3", "name": "\u5fe0\u5b5d\u6566\u5316\u7ad9\u51fa\u5165\u53e33"}}, {"geometry": {"type": "Point", "coordinates": [121.5181559, 25.0325735]}, "type": "Feature", "id": 2793283545, "properties": {"wheelchair": "no", "railway": "subway_entrance", "ref": "2", "name": "\u51fa\u53e3 2"}}, {"geometry": {"type": "Point", "coordinates": [121.5189227, 25.0322026]}, "type": "Feature", "id": 2793283548, "properties": {"wheelchair": "no", "railway": "subway_entrance", "ref": "3", "name": "\u51fa\u53e3 3"}}, {"geometry": {"type": "Point", "coordinates": [121.5174684, 25.0457486]}, "type": "Feature", "id": 2793285506, "properties": {"wheelchair": "no", "railway": "subway_entrance", "name": "M8"}}, {"geometry": {"type": "Point", "coordinates": [121.5182572, 25.0482425]}, "type": "Feature", "id": 2793285507, "properties": {"railway": "subway_entrance", "ref": "M1", "name": "M1"}}, {"geometry": {"type": "Point", "coordinates": [121.5189995, 25.0481095]}, "type": "Feature", "id": 2793285508, "properties": {"railway": "subway_entrance", "ref": "M2", "name": "M2"}}, {"geometry": {"type": "Point", "coordinates": [121.593863, 25.0833327]}, "type": "Feature", "id": 2806281129, "properties": {"railway": "subway_entrance", "ref": "1", "name": "\u5167\u6e56\u6377\u904b\u7ad91\u865f\u51fa\u53e3"}}, {"geometry": {"type": "Point", "coordinates": [121.4486339, 24.9853298]}, "type": "Feature", "id": 2820050058, "properties": {"railway": "subway_entrance", "name": "\u6377\u904b\u6d77\u5c71\u7ad91\u865f\u51fa\u53e3"}}, {"geometry": {"type": "Point", "coordinates": [121.5415917, 24.9831161]}, "type": "Feature", "id": 2961147707, "properties": {"name:en": "Exit 3", "name": "\u51fa\u53e3 3", "name:zh": "\u51fa\u53e3 3", "wheelchair": "yes", "railway": "subway_entrance", "ref": "3"}}, {"geometry": {"type": "Point", "coordinates": [121.4647574, 25.0913271]}, "type": "Feature", "id": 2982945109, "properties": {"railway": "subway_entrance"}}, {"geometry": {"type": "Point", "coordinates": [121.4648773, 25.0916636]}, "type": "Feature", "id": 2982945110, "properties": {"railway": "subway_entrance"}}, {"geometry": {"type": "Point", "coordinates": [121.4642781, 25.0918553]}, "type": "Feature", "id": 2982945111, "properties": {"railway": "subway_entrance"}}, {"geometry": {"type": "Point", "coordinates": [121.463607, 25.0921574]}, "type": "Feature", "id": 2982945112, "properties": {"railway": "subway_entrance"}}, {"geometry": {"type": "Point", "coordinates": [121.4798001, 25.0803374]}, "type": "Feature", "id": 2984524119, "properties": {"wheelchair": "no", "railway": "subway_entrance", "name": "\u51fa\u53e3 1"}}, {"geometry": {"type": "Point", "coordinates": [121.4804759, 25.0803725]}, "type": "Feature", "id": 2984524120, "properties": {"wheelchair": "yes", "railway": "subway_entrance", "name": "\u51fa\u53e3 2"}}, {"geometry": {"type": "Point", "coordinates": [121.4863195, 25.076616]}, "type": "Feature", "id": 2991819315, "properties": {"railway": "subway_entrance"}}, {"geometry": {"type": "Point", "coordinates": [121.486517, 25.0769845]}, "type": "Feature", "id": 2991819316, "properties": {"railway": "subway_entrance"}}, {"geometry": {"type": "Point", "coordinates": [121.5775514, 25.049919]}, "type": "Feature", "id": 3019852232, "properties": {"railway": "subway_entrance", "ref": "3"}}, {"geometry": {"type": "Point", "coordinates": [121.5779093, 25.0499421]}, "type": "Feature", "id": 3019852735, "properties": {"railway": "subway_entrance", "ref": "4"}}, {"geometry": {"type": "Point", "coordinates": [121.5765698, 25.0501492]}, "type": "Feature", "id": 3019852749, "properties": {"railway": "subway_entrance", "ref": "2"}}, {"geometry": {"type": "Point", "coordinates": [121.5771307, 25.0501691]}, "type": "Feature", "id": 3019852750, "properties": {"railway": "subway_entrance", "ref": "1"}}, {"geometry": {"type": "Point", "coordinates": [121.5779726, 25.0504984]}, "type": "Feature", "id": 3019852752, "properties": {"railway": "subway_entrance", "ref": "5"}}, {"geometry": {"type": "Point", "coordinates": [121.5671296, 25.0409286]}, "type": "Feature", "id": 3019870848, "properties": {"railway": "subway_entrance", "ref": "3"}}, {"geometry": {"type": "Point", "coordinates": [121.5658456, 25.0413148]}, "type": "Feature", "id": 3019870850, "properties": {"railway": "subway_entrance", "ref": "1"}}, {"geometry": {"type": "Point", "coordinates": [121.5194258, 25.0529846]}, "type": "Feature", "id": 3034546863, "properties": {"railway": "subway_entrance", "ref": "5"}}, {"geometry": {"type": "Point", "coordinates": [121.5336279, 25.0586026]}, "type": "Feature", "id": 3043949034, "properties": {"name:en": "EXIT 2 (China Youth Corps)", "name": "\u51fa\u53e3 2 (\u6551\u570b\u5718)", "name:zh": "\u51fa\u53e3 2 (\u6551\u570b\u5718)", "wheelchair": "yes", "railway": "subway_entrance", "ref": "2"}}, {"geometry": {"type": "Point", "coordinates": [121.5348071, 25.0449798]}, "type": "Feature", "id": 3050253123, "properties": {"railway": "subway_entrance", "name": "\u516b\u5fb7\u8def\u7dca\u6025\u51fa\u53e3"}}, {"geometry": {"type": "Point", "coordinates": [121.5325984, 25.0455611]}, "type": "Feature", "id": 3050255126, "properties": {"railway": "subway_entrance", "name": "\u65b0\u751f\u5357\u8def\u7dca\u6025\u51fa\u53e3"}}, {"geometry": {"type": "Point", "coordinates": [121.534212, 25.0145052]}, "type": "Feature", "id": 3055733035, "properties": {"name:en": "Exit 1 (Shuiyuan Market)", "name": "1\u865f\u51fa\u53e3 (\u6c34\u6e90\u5e02\u5834)", "name:zh": "1\u865f\u51fa\u53e3 (\u6c34\u6e90\u5e02\u5834)", "wheelchair": "yes", "railway": "subway_entrance", "ref": "1"}}, {"geometry": {"type": "Point", "coordinates": [121.5347814, 25.0146885]}, "type": "Feature", "id": 3055733036, "properties": {"name:en": "Exit 2 (Mingchuan Elementary School)", "name": "2\u865f\u51fa\u53e3 (\u9298\u50b3\u570b\u5c0f)", "name:zh": "2\u865f\u51fa\u53e3 (\u9298\u50b3\u570b\u5c0f)", "wheelchair": "yes", "railway": "subway_entrance", "ref": "2"}}, {"geometry": {"type": "Point", "coordinates": [121.5340603, 25.0153419]}, "type": "Feature", "id": 3055733037, "properties": {"name:en": "Exit 3 (National Taiwan University)", "name": "3\u865f\u51fa\u53e3 (\u81fa\u7063\u5927\u5b78)", "name:zh": "3\u865f\u51fa\u53e3 (\u81fa\u7063\u5927\u5b78)", "wheelchair": "no", "railway": "subway_entrance", "ref": "3"}}, {"geometry": {"type": "Point", "coordinates": [121.5337255, 25.0150511]}, "type": "Feature", "id": 3055733038, "properties": {"name:en": "Exit 4 (Tri-Service General Hospital Tingzhou Branch)", "name": "4\u865f\u51fa\u53e3 (\u4e09\u7e3d\u6c40\u5dde\u9662\u5340)", "name:zh": "4\u865f\u51fa\u53e3 (\u4e09\u7e3d\u6c40\u5dde\u9662\u5340)", "wheelchair": "no", "railway": "subway_entrance", "ref": "4"}}, {"geometry": {"type": "Point", "coordinates": [121.5426796, 24.9770281]}, "type": "Feature", "id": 3065310818, "properties": {"wheelchair": "no", "railway": "subway_entrance", "ref": "2", "name": "\u4e03\u5f35\u7ad92\u865f\u51fa\u53e3"}}, {"geometry": {"type": "Point", "coordinates": [121.5431339, 24.9748706]}, "type": "Feature", "id": 3065312804, "properties": {"railway": "subway_entrance", "ref": "1", "name": "\u4e03\u5f35\u7ad91\u865f\u51fa\u53e3"}}, {"geometry": {"type": "Point", "coordinates": [121.5232944, 25.0256475]}, "type": "Feature", "id": 3075089498, "properties": {"name:en": "EXIT 2 (Tongan St.)", "name": "\u51fa\u53e3 2 (\u540c\u5b89\u8857)", "name:zh": "\u51fa\u53e3 2 (\u540c\u5b89\u8857)", "wheelchair": "no", "railway": "subway_entrance", "ref": "2"}}, {"geometry": {"type": "Point", "coordinates": [121.5231024, 25.0258806]}, "type": "Feature", "id": 3075092733, "properties": {"name:en": "EXIT 1 (Tongan St.)", "name": "\u51fa\u53e3 1 (\u540c\u5b89\u8857)", "name:zh": "\u51fa\u53e3 1 (\u540c\u5b89\u8857)", "wheelchair": "yes", "railway": "subway_entrance", "ref": "1"}}, {"geometry": {"type": "Point", "coordinates": [121.5092445, 25.0446311]}, "type": "Feature", "id": 3076871479, "properties": {"railway": "subway_entrance", "ref": "4", "name": "\u897f\u9580\u5730\u4e0b\u88574\u865f\u51fa\u5165\u53e3"}}, {"geometry": {"type": "Point", "coordinates": [121.5090942, 25.0441293]}, "type": "Feature", "id": 3076880931, "properties": {"railway": "subway_entrance", "ref": "3", "name": "\u897f\u9580\u5730\u4e0b\u88573\u865f\u51fa\u5165\u53e3"}}, {"geometry": {"type": "Point", "coordinates": [121.509391, 25.0450346]}, "type": "Feature", "id": 3076882276, "properties": {"railway": "subway_entrance", "ref": "6", "name": "\u897f\u9580\u5730\u4e0b\u88576\u865f\u51fa\u5165\u53e3"}}, {"geometry": {"type": "Point", "coordinates": [121.5093686, 25.0447175]}, "type": "Feature", "id": 3076882277, "properties": {"access": "no", "railway": "subway_entrance", "ref": "5", "name": "\u897f\u9580\u5730\u4e0b\u88575\u865f\u51fa\u5165\u53e3"}}, {"geometry": {"type": "Point", "coordinates": [121.5090987, 25.0439791]}, "type": "Feature", "id": 3076885833, "properties": {"railway": "subway_entrance", "ref": "2", "name": "\u897f\u9580\u5730\u4e0b\u88572\u865f\u51fa\u5165\u53e3"}}, {"geometry": {"type": "Point", "coordinates": [121.5087497, 25.0429355]}, "type": "Feature", "id": 3076885841, "properties": {"railway": "subway_entrance", "ref": "5"}}, {"geometry": {"type": "Point", "coordinates": [121.5647355, 25.0516067]}, "type": "Feature", "id": 3079656795, "properties": {"railway": "subway_entrance", "ref": "4"}}, {"geometry": {"type": "Point", "coordinates": [121.548491, 25.0413]}, "type": "Feature", "id": 3080436552, "properties": {"railway": "subway_entrance", "ref": "10", "name": "\u6771\u5340\u5730\u4e0b\u885710\u865f\u51fa\u5165\u53e3"}}, {"geometry": {"type": "Point", "coordinates": [121.5414929, 24.9835521]}, "type": "Feature", "id": 3087727935, "properties": {"name:en": "Exit 4", "name": "\u51fa\u53e3 4", "name:zh": "\u51fa\u53e3 4", "wheelchair": "no", "railway": "subway_entrance", "ref": "4"}}, {"geometry": {"type": "Point", "coordinates": [121.5187858, 25.0627114]}, "type": "Feature", "id": 3100255230, "properties": {"railway": "subway_entrance", "ref": "6"}}, {"geometry": {"type": "Point", "coordinates": [121.5247943, 25.044332]}, "type": "Feature", "id": 3100680570, "properties": {"name:en": "EXIT 5 (Huashan Market)", "name": "\u51fa\u53e3 5 (\u83ef\u5c71\u5e02\u5834)", "name:zh": "\u51fa\u53e3 5 (\u83ef\u5c71\u5e02\u5834)", "wheelchair": "no", "railway": "subway_entrance", "ref": "5"}}, {"geometry": {"type": "Point", "coordinates": [121.5491406, 25.0412353]}, "type": "Feature", "id": 3105610982, "properties": {"railway": "subway_entrance", "ref": "6", "name": "\u5fe0\u5b5d\u6566\u5316\u7ad9\u51fa\u5165\u53e36"}}, {"geometry": {"type": "Point", "coordinates": [121.5491434, 25.0418654]}, "type": "Feature", "id": 3105611480, "properties": {"railway": "subway_entrance", "ref": "8", "name": "\u5fe0\u5b5d\u6566\u5316\u7ad9\u51fa\u5165\u53e38"}}, {"geometry": {"type": "Point", "coordinates": [121.5497727, 25.0413394]}, "type": "Feature", "id": 3105665740, "properties": {"railway": "subway_entrance", "ref": "5", "name": "\u5fe0\u5b5d\u6566\u5316\u7ad9\u51fa\u5165\u53e35"}}, {"geometry": {"type": "Point", "coordinates": [121.5499429, 25.0416324]}, "type": "Feature", "id": 3105665933, "properties": {"railway": "subway_entrance", "ref": "7", "name": "\u5fe0\u5b5d\u6566\u5316\u7ad9\u51fa\u5165\u53e37"}}, {"geometry": {"type": "Point", "coordinates": [121.5506232, 25.0412863]}, "type": "Feature", "id": 3105666330, "properties": {"railway": "subway_entrance", "ref": "4"}}, {"geometry": {"type": "Point", "coordinates": [121.5204315, 25.052794]}, "type": "Feature", "id": 3111004284, "properties": {"railway": "subway_entrance", "ref": "4"}}, {"geometry": {"type": "Point", "coordinates": [121.5516883, 25.0630137]}, "type": "Feature", "id": 3120640924, "properties": {"wheelchair": "yes", "railway": "subway_entrance", "name": "\u51fa\u53e3 3"}}, {"geometry": {"type": "Point", "coordinates": [121.5512217, 25.0635474]}, "type": "Feature", "id": 3120640925, "properties": {"wheelchair": "yes", "railway": "subway_entrance", "name": "\u51fa\u53e3 2"}}, {"geometry": {"type": "Point", "coordinates": [121.5519354, 25.0635636]}, "type": "Feature", "id": 3120640926, "properties": {"wheelchair": "yes", "railway": "subway_entrance", "name": "\u51fa\u53e3 1"}}, {"geometry": {"type": "Point", "coordinates": [121.5176966, 25.0331551]}, "type": "Feature", "id": 3121796776, "properties": {"wheelchair": "yes", "railway": "subway_entrance", "ref": "1", "name": "\u51fa\u53e3 1"}}, {"geometry": {"type": "Point", "coordinates": [121.5179912, 25.0333701]}, "type": "Feature", "id": 3121796777, "properties": {"wheelchair": "no", "railway": "subway_entrance", "ref": "4", "name": "\u51fa\u53e3 4"}}, {"geometry": {"type": "Point", "coordinates": [121.5171509, 25.0351328]}, "type": "Feature", "id": 3121796778, "properties": {"wheelchair": "yes", "railway": "subway_entrance", "name": "\u51fa\u53e3 5"}}, {"geometry": {"type": "Point", "coordinates": [121.5799529, 24.9982621]}, "type": "Feature", "id": 3125988496, "properties": {"wheelchair": "yes", "railway": "subway_entrance", "name:en": "EXIT 1", "name:zh": "\u51fa\u53e3 1", "name": "\u51fa\u53e3 1"}}, {"geometry": {"type": "Point", "coordinates": [121.5794418, 24.9979799]}, "type": "Feature", "id": 3125988497, "properties": {"wheelchair": "yes", "railway": "subway_entrance", "name:en": "EXIT 2", "name:zh": "\u51fa\u53e3 2", "name": "\u51fa\u53e3 2"}}, {"geometry": {"type": "Point", "coordinates": [121.4489578, 24.9853473]}, "type": "Feature", "id": 3131389219, "properties": {"railway": "subway_entrance", "name": "\u6377\u904b\u6d77\u5c71\u7ad92\u865f\u51fa\u53e3"}}, {"geometry": {"type": "Point", "coordinates": [121.4492608, 24.9862809]}, "type": "Feature", "id": 3131389227, "properties": {"railway": "subway_entrance", "name": "\u6377\u904b\u6d77\u5c71\u7ad93\u865f\u51fa\u53e3"}}, {"geometry": {"type": "Point", "coordinates": [121.5229866, 25.0265375]}, "type": "Feature", "id": 3145881246, "properties": {"name:en": "EXIT 4 (N.T.N.U)", "name": "\u51fa\u53e3 4 (\u5e2b\u7bc4\u5927\u5b78)", "name:zh": "\u51fa\u53e3 4 (\u5e2b\u7bc4\u5927\u5b78)", "wheelchair": "no", "railway": "subway_entrance", "ref": "4"}}, {"geometry": {"type": "Point", "coordinates": [121.5227523, 25.0271985]}, "type": "Feature", "id": 3145881251, "properties": {"name:en": "EXIT 5 (Heping E. Rd. Sec. 1)", "name": "\u51fa\u53e3 5 (\u548c\u5e73\u6771\u8def\u4e00\u6bb5)", "name:zh": "\u51fa\u53e3 5 (\u548c\u5e73\u6771\u8def\u4e00\u6bb5)", "wheelchair": "no", "railway": "subway_entrance", "ref": "5"}}, {"geometry": {"type": "Point", "coordinates": [121.5223004, 25.0274781]}, "type": "Feature", "id": 3145881252, "properties": {"name:en": "EXIT 6 (Hangzhou S. Rd.)", "name": "\u51fa\u53e3 6 (\u676d\u5dde\u5357\u8def)", "name:zh": "\u51fa\u53e3 6 (\u676d\u5dde\u5357\u8def)", "wheelchair": "no", "railway": "subway_entrance", "ref": "6"}}, {"geometry": {"type": "Point", "coordinates": [121.5218623, 25.0277407]}, "type": "Feature", "id": 3145881253, "properties": {"name:en": "EXIT 7 (Mandarin Daily News)", "name": "\u51fa\u53e3 7 \u570b\u8a9e\u65e5\u5831", "name:zh_tw": "\u51fa\u53e3 7 \u570b\u8a9e\u65e5\u5831", "wheelchair": "no", "railway": "subway_entrance", "ref": "7", "name:zh_cn": "\u51fa\u53e3 7 \u56fd\u8bed\u65e5\u62a5"}}, {"geometry": {"type": "Point", "coordinates": [121.5218347, 25.0270738]}, "type": "Feature", "id": 3145881254, "properties": {"name:en": "EXIT 8 (Heping W. Rd. Sec. 1)", "name": "\u51fa\u53e3 8 (\u548c\u5e73\u897f\u8def\u4e00\u6bb5)", "name:zh": "\u51fa\u53e3 8 (\u548c\u5e73\u897f\u8def\u4e00\u6bb5)", "wheelchair": "no", "railway": "subway_entrance", "ref": "8"}}, {"geometry": {"type": "Point", "coordinates": [121.5223394, 25.0268363]}, "type": "Feature", "id": 3145881255, "properties": {"name:en": "EXIT 9 (Metropolitan International Center)", "name": "\u51fa\u53e3 9 (\u5927\u90fd\u5e02\u570b\u969b\u4e2d\u5fc3)", "name:zh": "\u51fa\u53e3 9 (\u5927\u90fd\u5e02\u570b\u969b\u4e2d\u5fc3)", "wheelchair": "no", "railway": "subway_entrance", "ref": "9"}}, {"geometry": {"type": "Point", "coordinates": [121.583169, 25.0452416]}, "type": "Feature", "id": 3159240171, "properties": {"wheelchair": "yes", "railway": "subway_entrance", "name:en": "EXIT 3 (Taipei City Hospital (Zhongxiao Branch))", "name:zh": "\u51fa\u53e3 3 (\u806f\u5408\u91ab\u9662\u5fe0\u5b5d\u9662\u5340)", "name": "\u51fa\u53e3 3 (\u806f\u5408\u91ab\u9662\u5fe0\u5b5d\u9662\u5340)"}}, {"geometry": {"type": "Point", "coordinates": [121.5824776, 25.0455353]}, "type": "Feature", "id": 3159240172, "properties": {"wheelchair": "no", "railway": "subway_entrance", "name:en": "EXIT 4 (Yongji Rd.)", "name:zh": "\u51fa\u53e3 4 (\u6c38\u5409\u8def)", "name": "\u51fa\u53e3 4 (\u6c38\u5409\u8def)"}}, {"geometry": {"type": "Point", "coordinates": [121.5815761, 25.0443589]}, "type": "Feature", "id": 3159240173, "properties": {"wheelchair": "no", "railway": "subway_entrance", "name:en": "EXIT 1 (Wufenpu Commercial Zone)", "name:zh": "\u51fa\u53e3 1 (\u4e94\u5206\u57d4\u5546\u5708)", "name": "\u51fa\u53e3 1 (\u4e94\u5206\u57d4\u5546\u5708)"}}, {"geometry": {"type": "Point", "coordinates": [121.5819986, 25.0439152]}, "type": "Feature", "id": 3159240174, "properties": {"wheelchair": "no", "railway": "subway_entrance", "name:en": "EXIT 2 (Yucheng Park)", "name:zh": "\u51fa\u53e3 2 (\u7389\u6210\u516c\u5712)", "name": "\u51fa\u53e3 2 (\u7389\u6210\u516c\u5712)"}}, {"geometry": {"type": "Point", "coordinates": [121.5333612, 25.0598981]}, "type": "Feature", "id": 3160677372, "properties": {"name:en": "EXIT 3 (Xingtian Temple)", "name": "\u51fa\u53e3 3 (\u884c\u5929\u5bae)", "name:zh": "\u51fa\u53e3 3 (\u884c\u5929\u5bae)", "wheelchair": "no", "railway": "subway_entrance", "ref": "3"}}, {"geometry": {"type": "Point", "coordinates": [121.5330676, 25.0604556]}, "type": "Feature", "id": 3160677373, "properties": {"name:en": "EXIT 4 (Golden China Hotel)", "name": "\u51fa\u53e3 4 (\u5eb7\u83ef\u5927\u98ef\u5e97)", "name:zh": "\u51fa\u53e3 4 (\u5eb7\u83ef\u5927\u98ef\u5e97)", "wheelchair": "no", "railway": "subway_entrance", "ref": "4"}}, {"geometry": {"type": "Point", "coordinates": [121.6182954, 25.0551519]}, "type": "Feature", "id": 3162283816, "properties": {"name:en": "EXIT 3", "name": "\u51fa\u53e3 3", "name:zh": "\u51fa\u53e3 3", "wheelchair": "yes", "railway": "subway_entrance", "ref": "3"}}, {"geometry": {"type": "Point", "coordinates": [121.6183264, 25.0553711]}, "type": "Feature", "id": 3162283817, "properties": {"name:en": "EXIT 4", "name": "\u51fa\u53e3 4", "name:zh": "\u51fa\u53e3 4", "wheelchair": "yes", "railway": "subway_entrance", "ref": "4"}}, {"geometry": {"type": "Point", "coordinates": [121.6178879, 25.054753]}, "type": "Feature", "id": 3162283818, "properties": {"name:en": "EXIT 6 (Nangang Rd. Sec. 1)", "name": "\u51fa\u53e3 6 (\u5357\u6e2f\u8def\u4e00\u6bb5)", "name:zh": "\u51fa\u53e3 6 (\u5357\u6e2f\u8def\u4e00\u6bb5)", "wheelchair": "no", "railway": "subway_entrance", "ref": "6"}}, {"geometry": {"type": "Point", "coordinates": [121.6168436, 25.0548536]}, "type": "Feature", "id": 3162283819, "properties": {"name:en": "EXIT 5 (Academia Rd. Sec. 1)", "name": "\u51fa\u53e3 5 (\u7814\u7a76\u9662\u8def\u4e00\u6bb5)", "name:zh": "\u51fa\u53e3 5 (\u7814\u7a76\u9662\u8def\u4e00\u6bb5)", "wheelchair": "yes", "railway": "subway_entrance", "ref": "5"}}, {"geometry": {"type": "Point", "coordinates": [121.6181459, 25.0540691]}, "type": "Feature", "id": 3162283820, "properties": {"name:en": "EXIT 7 (Chengzheng Junior High School)", "name": "\u51fa\u53e3 7 (\u8aa0\u6b63\u570b\u4e2d)", "name:zh": "\u51fa\u53e3 7 (\u8aa0\u6b63\u570b\u4e2d)", "wheelchair": "no", "railway": "subway_entrance", "ref": "7"}}, {"geometry": {"type": "Point", "coordinates": [121.6173785, 25.0552928]}, "type": "Feature", "id": 3162283821, "properties": {"name:en": "EXIT 2A", "name": "\u51fa\u53e3 2A", "name:zh": "\u51fa\u53e3 2A", "wheelchair": "yes", "railway": "subway_entrance", "ref": "2A"}}, {"geometry": {"type": "Point", "coordinates": [121.6173799, 25.0554015]}, "type": "Feature", "id": 3162283822, "properties": {"name:en": "EXIT 2", "name": "\u51fa\u53e3 2", "name:zh": "\u51fa\u53e3 2", "wheelchair": "yes", "railway": "subway_entrance", "ref": "2"}}, {"geometry": {"type": "Point", "coordinates": [121.5615096, 25.033137]}, "type": "Feature", "id": 3164097071, "properties": {"railway": "subway_entrance", "name": "\u53f0\u5317101\u4e16\u8cbf\u7ad9\u51fa\u53e31"}}, {"geometry": {"type": "Point", "coordinates": [121.56319, 25.0331176]}, "type": "Feature", "id": 3164097072, "properties": {"wheelchair": "yes", "railway": "subway_entrance", "name": "\u53f0\u5317101\u4e16\u8cbf\u7ad9\u51fa\u53e35", "highway": "elevator"}}, {"geometry": {"type": "Point", "coordinates": [121.6157375, 25.0602775]}, "type": "Feature", "id": 3168240174, "properties": {"railway": "subway_entrance", "name": "\u51fa\u53e31"}}, {"geometry": {"type": "Point", "coordinates": [121.6164018, 25.0600001]}, "type": "Feature", "id": 3168240175, "properties": {"railway": "subway_entrance", "name": "\u51fa\u53e32"}}, {"geometry": {"type": "Point", "coordinates": [121.5109503, 25.002289]}, "type": "Feature", "id": 3180269352, "properties": {"railway": "subway_entrance"}}, {"geometry": {"type": "Point", "coordinates": [121.5645853, 25.0512345]}, "type": "Feature", "id": 3182476397, "properties": {"railway": "subway_entrance", "ref": "3"}}, {"geometry": {"type": "Point", "coordinates": [121.5631362, 25.0513272]}, "type": "Feature", "id": 3182476398, "properties": {"railway": "subway_entrance", "ref": "2"}}, {"geometry": {"type": "Point", "coordinates": [121.5631235, 25.0516553]}, "type": "Feature", "id": 3182476401, "properties": {"railway": "subway_entrance", "ref": "1"}}, {"geometry": {"type": "Point", "coordinates": [121.5525313, 25.05134]}, "type": "Feature", "id": 3182488910, "properties": {"wheelchair": "yes", "railway": "subway_entrance", "wikipedia": "zh:%E5%8F%B0%E5%8C%97%E5%B0%8F%E5%B7%A8%E8%9B%8B%E7%AB%99", "ref": "3", "name": "\u6377\u904b\u5c0f\u5de8\u86cb\u7ad9(3\u865f\u51fa\u53e3)"}}, {"geometry": {"type": "Point", "coordinates": [121.5528969, 25.0514664]}, "type": "Feature", "id": 3182488911, "properties": {"wikipedia": "zh:%E5%8F%B0%E5%8C%97%E5%B0%8F%E5%B7%A8%E8%9B%8B%E7%AB%99", "railway": "subway_entrance", "ref": "4", "name": "\u53f0\u5317\u5c0f\u5de8\u86cb\u7ad9\u51fa\u53e34"}}, {"geometry": {"type": "Point", "coordinates": [121.5508084, 25.0514171]}, "type": "Feature", "id": 3182488912, "properties": {"railway": "subway_entrance", "ref": "2", "name": "\u6377\u904b\u5c0f\u5de8\u86cb\u7ad92\u865f\u51fa\u53e3"}}, {"geometry": {"type": "Point", "coordinates": [121.5445998, 25.0515558]}, "type": "Feature", "id": 3182488913, "properties": {"railway": "subway_entrance", "ref": "5"}}, {"geometry": {"type": "Point", "coordinates": [121.5418514, 25.051603]}, "type": "Feature", "id": 3182488914, "properties": {"railway": "subway_entrance", "ref": "2"}}, {"geometry": {"type": "Point", "coordinates": [121.5431882, 25.0516851]}, "type": "Feature", "id": 3182488915, "properties": {"railway": "subway_entrance", "ref": "4"}}, {"geometry": {"type": "Point", "coordinates": [121.5429742, 25.0516834]}, "type": "Feature", "id": 3182488916, "properties": {"railway": "subway_entrance", "ref": "3"}}, {"geometry": {"type": "Point", "coordinates": [121.5520383, 25.0518684]}, "type": "Feature", "id": 3182488919, "properties": {"railway": "subway_entrance", "ref": "5", "name": "\u6377\u904b\u5c0f\u5de8\u86cb\u7ad9\u4e94\u865f\u51fa\u53e3"}}, {"geometry": {"type": "Point", "coordinates": [121.5514393, 25.0518746]}, "type": "Feature", "id": 3182488920, "properties": {"railway": "subway_entrance", "ref": "1"}}, {"geometry": {"type": "Point", "coordinates": [121.5448944, 25.0519627]}, "type": "Feature", "id": 3182488921, "properties": {"railway": "subway_entrance", "ref": "6"}}, {"geometry": {"type": "Point", "coordinates": [121.5436181, 25.0520322]}, "type": "Feature", "id": 3182488922, "properties": {"railway": "subway_entrance", "ref": "8"}}, {"geometry": {"type": "Point", "coordinates": [121.5442259, 25.0521637]}, "type": "Feature", "id": 3182488923, "properties": {"railway": "subway_entrance", "ref": "7"}}, {"geometry": {"type": "Point", "coordinates": [121.5421427, 25.0525172]}, "type": "Feature", "id": 3182488926, "properties": {"railway": "subway_entrance", "ref": "1"}}, {"geometry": {"type": "Point", "coordinates": [121.5444452, 25.0519476]}, "type": "Feature", "id": 3182497059, "properties": {"railway": "subway_entrance", "ref": "6"}}, {"geometry": {"type": "Point", "coordinates": [121.5323465, 25.0518104]}, "type": "Feature", "id": 3182565879, "properties": {"railway": "subway_entrance", "ref": "1", "name": "1\u865f\u51fa\u5165\u53e3"}}, {"geometry": {"type": "Point", "coordinates": [121.5337341, 25.0521585]}, "type": "Feature", "id": 3182567464, "properties": {"railway": "subway_entrance", "ref": "6", "name": "6\u865f\u51fa\u5165\u53e3"}}, {"geometry": {"type": "Point", "coordinates": [121.5343342, 25.051911]}, "type": "Feature", "id": 3182588061, "properties": {"railway": "subway_entrance", "ref": "5", "name": "5\u865f\u51fa\u5165\u53e3"}}, {"geometry": {"type": "Point", "coordinates": [121.6173495, 25.0557915]}, "type": "Feature", "id": 3185537679, "properties": {"railway": "subway_entrance", "ref": "2", "name": "\u51fa\u53e31"}}, {"geometry": {"type": "Point", "coordinates": [121.5098208, 25.0488357]}, "type": "Feature", "id": 3186011785, "properties": {"railway": "subway_entrance", "ref": "1"}}, {"geometry": {"type": "Point", "coordinates": [121.5105289, 25.0492729]}, "type": "Feature", "id": 3186011786, "properties": {"railway": "subway_entrance", "ref": "2"}}, {"geometry": {"type": "Point", "coordinates": [121.5100948, 25.0499869]}, "type": "Feature", "id": 3186011787, "properties": {"railway": "subway_entrance", "ref": "3"}}, {"geometry": {"type": "Point", "coordinates": [121.5212144, 25.0523517]}, "type": "Feature", "id": 3186011829, "properties": {"railway": "subway_entrance", "ref": "2"}}, {"geometry": {"type": "Point", "coordinates": [121.5211716, 25.0525876]}, "type": "Feature", "id": 3186011832, "properties": {"railway": "subway_entrance", "ref": "3"}}, {"geometry": {"type": "Point", "coordinates": [121.518973, 25.0527825]}, "type": "Feature", "id": 3186011838, "properties": {"railway": "subway_entrance", "ref": "6"}}, {"geometry": {"type": "Point", "coordinates": [121.5190009, 25.0486803]}, "type": "Feature", "id": 3192472090, "properties": {"railway": "subway_entrance", "ref": "R1"}}, {"geometry": {"type": "Point", "coordinates": [121.5736756, 25.0493639]}, "type": "Feature", "id": 3195838550, "properties": {"building": "yes", "railway": "subway_entrance", "name": "\u6c38\u5409\u8def183\u5df7\u6771\u5074"}}, {"geometry": {"type": "Point", "coordinates": [121.5434748, 25.041107]}, "type": "Feature", "id": 3198206532, "properties": {"railway": "subway_entrance", "ref": "2"}}, {"geometry": {"type": "Point", "coordinates": [121.5448598, 25.0414532]}, "type": "Feature", "id": 3198206550, "properties": {"railway": "subway_entrance", "ref": "3"}}, {"geometry": {"type": "Point", "coordinates": [121.5449394, 25.0417291]}, "type": "Feature", "id": 3198206553, "properties": {"railway": "subway_entrance", "ref": "4"}}, {"geometry": {"type": "Point", "coordinates": [121.5431759, 25.0417865]}, "type": "Feature", "id": 3198206554, "properties": {"railway": "subway_entrance", "ref": "1"}}, {"geometry": {"type": "Point", "coordinates": [121.5274416, 25.0341579]}, "type": "Feature", "id": 3216077271, "properties": {"railway": "subway_entrance", "ref": "2"}}, {"geometry": {"type": "Point", "coordinates": [121.5278344, 25.0337368]}, "type": "Feature", "id": 3216077385, "properties": {"railway": "subway_entrance", "ref": "3"}}, {"geometry": {"type": "Point", "coordinates": [121.4437167, 24.9727828]}, "type": "Feature", "id": 3220179013, "properties": {"railway": "subway_entrance", "name:zh": "\u6377\u904b\u571f\u57ce\u7ad92\u865f\u51fa\u53e3", "name": "\u6377\u904b\u571f\u57ce\u7ad92\u865f\u51fa\u53e3"}}, {"geometry": {"type": "Point", "coordinates": [121.444208, 24.9732838]}, "type": "Feature", "id": 3220179014, "properties": {"railway": "subway_entrance", "name:zh": "\u6377\u904b\u571f\u57ce\u7ad91\u865f\u51fa\u53e3", "name": "\u6377\u904b\u571f\u57ce\u7ad91\u865f\u51fa\u53e3"}}, {"geometry": {"type": "Point", "coordinates": [121.4452253, 24.9736908]}, "type": "Feature", "id": 3220179015, "properties": {"railway": "subway_entrance", "name:zh": "\u6377\u904b\u571f\u57ce\u7ad93\u865f\u51fa\u53e3", "name": "\u6377\u904b\u571f\u57ce\u7ad93\u865f\u51fa\u53e3"}}, {"geometry": {"type": "Point", "coordinates": [121.5200678, 25.0626812]}, "type": "Feature", "id": 3221768723, "properties": {"railway": "subway_entrance", "ref": "7"}}, {"geometry": {"type": "Point", "coordinates": [121.5205789, 25.0626687]}, "type": "Feature", "id": 3221770058, "properties": {"railway": "subway_entrance", "ref": "8"}}, {"geometry": {"type": "Point", "coordinates": [121.5205426, 25.0629226]}, "type": "Feature", "id": 3221770059, "properties": {"railway": "subway_entrance", "ref": "9"}}, {"geometry": {"type": "Point", "coordinates": [121.520135, 25.0630071]}, "type": "Feature", "id": 3221770885, "properties": {"railway": "subway_entrance", "ref": "10", "description": "\u96fb\u68af"}}, {"geometry": {"type": "Point", "coordinates": [121.5207084, 25.0575682]}, "type": "Feature", "id": 3221770918, "properties": {"railway": "subway_entrance", "ref": "1"}}, {"geometry": {"type": "Point", "coordinates": [121.5376017, 24.9581195]}, "type": "Feature", "id": 3229482482, "properties": {"railway": "subway_entrance"}}, {"geometry": {"type": "Point", "coordinates": [121.5207226, 25.0577516]}, "type": "Feature", "id": 3229482484, "properties": {"railway": "subway_entrance", "ref": "2"}}, {"geometry": {"type": "Point", "coordinates": [121.6121545, 25.0670711]}, "type": "Feature", "id": 3232527369, "properties": {"wheelchair": "yes", "railway": "subway_entrance", "name": "\u6377\u904b\u6771\u6e563\u865f\u51fa\u53e3"}}, {"geometry": {"type": "Point", "coordinates": [121.511985, 25.0483687]}, "type": "Feature", "id": 3262986269, "properties": {"access": "emergency", "railway": "subway_entrance", "ref": "5", "name": "\u5ef6\u5e73\u5317\u8def\u7dca\u6025\u51fa\u53e3", "emergency": "yes"}}, {"geometry": {"type": "Point", "coordinates": [121.5083595, 25.0414529]}, "type": "Feature", "id": 3263506466, "properties": {"railway": "subway_entrance", "ref": "2"}}, {"geometry": {"type": "Point", "coordinates": [121.5095684, 25.0434948]}, "type": "Feature", "id": 3263840837, "properties": {"railway": "subway_entrance", "ref": "1", "name": "\u897f\u9580\u5730\u4e0b\u88571\u865f\u51fa\u5165\u53e3"}}, {"geometry": {"type": "Point", "coordinates": [121.5290173, 25.0340511]}, "type": "Feature", "id": 3270311563, "properties": {"railway": "subway_entrance", "ref": "8"}}, {"geometry": {"type": "Point", "coordinates": [121.5299277, 25.0338735]}, "type": "Feature", "id": 3270313561, "properties": {"railway": "subway_entrance", "ref": "6"}}, {"geometry": {"type": "Point", "coordinates": [121.5294939, 25.0335862]}, "type": "Feature", "id": 3270313763, "properties": {"railway": "subway_entrance", "ref": "5"}}, {"geometry": {"type": "Point", "coordinates": [121.5297128, 25.0338914]}, "type": "Feature", "id": 3270313764, "properties": {"railway": "subway_entrance", "ref": "7"}}, {"geometry": {"type": "Point", "coordinates": [121.5288271, 25.0336558]}, "type": "Feature", "id": 3270313864, "properties": {"railway": "subway_entrance", "ref": "4"}}, {"geometry": {"type": "Point", "coordinates": [121.5279596, 25.034106]}, "type": "Feature", "id": 3270313865, "properties": {"railway": "subway_entrance", "ref": "1"}}, {"geometry": {"type": "Point", "coordinates": [121.5359129, 25.0332585]}, "type": "Feature", "id": 3270336880, "properties": {"railway": "subway_entrance", "ref": "5"}}, {"geometry": {"type": "Point", "coordinates": [121.5356929, 25.0332683]}, "type": "Feature", "id": 3270339880, "properties": {"railway": "subway_entrance", "ref": "4"}}, {"geometry": {"type": "Point", "coordinates": [121.5359423, 25.0336545]}, "type": "Feature", "id": 3270339881, "properties": {"railway": "subway_entrance", "ref": "6"}}, {"geometry": {"type": "Point", "coordinates": [121.5350726, 25.0333112]}, "type": "Feature", "id": 3270343269, "properties": {"railway": "subway_entrance", "ref": "3"}}, {"geometry": {"type": "Point", "coordinates": [121.5344651, 25.0336493]}, "type": "Feature", "id": 3270343682, "properties": {"railway": "subway_entrance", "ref": "1"}}, {"geometry": {"type": "Point", "coordinates": [121.5345011, 25.0333025]}, "type": "Feature", "id": 3270346882, "properties": {"railway": "subway_entrance", "ref": "2"}}, {"geometry": {"type": "Point", "coordinates": [121.5733614, 24.9981589]}, "type": "Feature", "id": 3273405873, "properties": {"railway": "subway_entrance"}}, {"geometry": {"type": "Point", "coordinates": [121.5439768, 25.0607576]}, "type": "Feature", "id": 3273406572, "properties": {"railway": "subway_entrance"}}, {"geometry": {"type": "Point", "coordinates": [121.5437027, 25.0260962]}, "type": "Feature", "id": 3273406580, "properties": {"railway": "subway_entrance"}}, {"geometry": {"type": "Point", "coordinates": [121.5586496, 25.0186436]}, "type": "Feature", "id": 3273406731, "properties": {"railway": "subway_entrance"}}, {"geometry": {"type": "Point", "coordinates": [121.5527435, 25.0238155]}, "type": "Feature", "id": 3273407867, "properties": {"railway": "subway_entrance"}}, {"geometry": {"type": "Point", "coordinates": [121.5300736, 24.971765]}, "type": "Feature", "id": 3273605568, "properties": {"railway": "subway_entrance", "ref": "1"}}, {"geometry": {"type": "Point", "coordinates": [121.5302452, 24.9731268]}, "type": "Feature", "id": 3273605569, "properties": {"railway": "subway_entrance", "ref": "2"}}, {"geometry": {"type": "Point", "coordinates": [121.568043, 24.9986881]}, "type": "Feature", "id": 3273605570, "properties": {"railway": "subway_entrance"}}, {"geometry": {"type": "Point", "coordinates": [121.5577688, 24.9993368]}, "type": "Feature", "id": 3273605571, "properties": {"railway": "subway_entrance"}}, {"geometry": {"type": "Point", "coordinates": [121.5568535, 25.0050751]}, "type": "Feature", "id": 3273605572, "properties": {"railway": "subway_entrance"}}, {"geometry": {"type": "Point", "coordinates": [121.5329796, 25.0408123]}, "type": "Feature", "id": 3273605573, "properties": {"railway": "subway_entrance", "ref": "6"}}, {"geometry": {"type": "Point", "coordinates": [121.5322774, 25.0410722]}, "type": "Feature", "id": 3273605574, "properties": {"railway": "subway_entrance", "ref": "5"}}, {"geometry": {"type": "Point", "coordinates": [121.532982, 25.0415693]}, "type": "Feature", "id": 3273605575, "properties": {"railway": "subway_entrance", "ref": "7"}}, {"geometry": {"type": "Point", "coordinates": [121.5336554, 25.0417624]}, "type": "Feature", "id": 3273605576, "properties": {"railway": "subway_entrance", "ref": "3"}}, {"geometry": {"type": "Point", "coordinates": [121.5439176, 25.0419773]}, "type": "Feature", "id": 3273605577, "properties": {"railway": "subway_entrance", "ref": "5"}}, {"geometry": {"type": "Point", "coordinates": [121.5332509, 25.0424207]}, "type": "Feature", "id": 3273605578, "properties": {"railway": "subway_entrance", "ref": "4"}}, {"geometry": {"type": "Point", "coordinates": [121.5198267, 25.0617411]}, "type": "Feature", "id": 3273605579, "properties": {"railway": "subway_entrance", "ref": "3"}}, {"geometry": {"type": "Point", "coordinates": [121.5196075, 25.0618559]}, "type": "Feature", "id": 3273605580, "properties": {"railway": "subway_entrance", "ref": "2"}}, {"geometry": {"type": "Point", "coordinates": [121.5198147, 25.0619443]}, "type": "Feature", "id": 3273605581, "properties": {"railway": "subway_entrance", "ref": "4"}}, {"geometry": {"type": "Point", "coordinates": [121.5271766, 25.0624358]}, "type": "Feature", "id": 3273605582, "properties": {"railway": "subway_entrance", "ref": "3"}}, {"geometry": {"type": "Point", "coordinates": [121.5259092, 25.0624551]}, "type": "Feature", "id": 3273605583, "properties": {"railway": "subway_entrance", "ref": "2"}}, {"geometry": {"type": "Point", "coordinates": [121.5267469, 25.0628224]}, "type": "Feature", "id": 3273605584, "properties": {"railway": "subway_entrance", "ref": "4"}}, {"geometry": {"type": "Point", "coordinates": [121.5259347, 25.0628336]}, "type": "Feature", "id": 3273605585, "properties": {"railway": "subway_entrance", "ref": "1"}}, {"geometry": {"type": "Point", "coordinates": [121.5122767, 25.0631271]}, "type": "Feature", "id": 3273605586, "properties": {"railway": "subway_entrance", "ref": "1"}}, {"geometry": {"type": "Point", "coordinates": [121.5185608, 25.063181]}, "type": "Feature", "id": 3273605587, "properties": {"railway": "subway_entrance", "ref": "5"}}, {"geometry": {"type": "Point", "coordinates": [121.513256, 25.063185]}, "type": "Feature", "id": 3273605588, "properties": {"railway": "subway_entrance", "ref": "2"}}, {"geometry": {"type": "Point", "coordinates": [121.5134135, 25.0637915]}, "type": "Feature", "id": 3273605589, "properties": {"railway": "subway_entrance", "ref": "3"}}, {"geometry": {"type": "Point", "coordinates": [121.5471117, 25.0794398]}, "type": "Feature", "id": 3273605590, "properties": {"railway": "subway_entrance", "ref": "3"}}, {"geometry": {"type": "Point", "coordinates": [121.5468429, 25.0796058]}, "type": "Feature", "id": 3273605591, "properties": {"railway": "subway_entrance", "ref": "2"}}, {"geometry": {"type": "Point", "coordinates": [121.5470552, 25.0802371]}, "type": "Feature", "id": 3273605592, "properties": {"railway": "subway_entrance", "ref": "1"}}, {"geometry": {"type": "Point", "coordinates": [121.5248846, 25.0837599]}, "type": "Feature", "id": 3273605593, "properties": {"railway": "subway_entrance", "ref": "2"}}, {"geometry": {"type": "Point", "coordinates": [121.5251656, 25.0848479]}, "type": "Feature", "id": 3273605594, "properties": {"railway": "subway_entrance", "ref": "1"}}, {"geometry": {"type": "Point", "coordinates": [121.5263819, 25.0928787]}, "type": "Feature", "id": 3273605595, "properties": {"railway": "subway_entrance", "ref": "2"}}, {"geometry": {"type": "Point", "coordinates": [121.5259915, 25.0941133]}, "type": "Feature", "id": 3273605596, "properties": {"railway": "subway_entrance", "ref": "1"}}, {"geometry": {"type": "Point", "coordinates": [121.5476571, 25.0416594]}, "type": "Feature", "id": 3304641854, "properties": {"railway": "subway_entrance", "ref": "11", "name": "\u6771\u5340\u5730\u4e0b\u885711\u865f\u51fa\u5165\u53e3"}}, {"geometry": {"type": "Point", "coordinates": [121.547776, 25.0411648]}, "type": "Feature", "id": 3304641855, "properties": {"railway": "subway_entrance", "ref": "12", "name": "\u6771\u5340\u5730\u4e0b\u885712\u865f\u51fa\u5165\u53e3"}}, {"geometry": {"type": "Point", "coordinates": [121.5467865, 25.0413853]}, "type": "Feature", "id": 3304641856, "properties": {"railway": "subway_entrance", "ref": "13", "name": "\u6771\u5340\u5730\u4e0b\u885713\u865f\u51fa\u5165\u53e3"}}, {"geometry": {"type": "Point", "coordinates": [121.5463385, 25.0418649]}, "type": "Feature", "id": 3304641857, "properties": {"railway": "subway_entrance", "ref": "14", "name": "\u6771\u5340\u5730\u4e0b\u885714\u865f\u51fa\u5165\u53e3"}}, {"geometry": {"type": "Point", "coordinates": [121.5460057, 25.0414184]}, "type": "Feature", "id": 3304641858, "properties": {"railway": "subway_entrance", "ref": "15", "name": "\u6771\u5340\u5730\u4e0b\u885715\u865f\u51fa\u5165\u53e3"}}, {"geometry": {"type": "Point", "coordinates": [121.5454151, 25.0417197]}, "type": "Feature", "id": 3304641859, "properties": {"railway": "subway_entrance", "ref": "16", "name": "\u6771\u5340\u5730\u4e0b\u885716\u865f\u51fa\u5165\u53e3"}}, {"geometry": {"type": "Point", "coordinates": [121.545547, 25.0414317]}, "type": "Feature", "id": 3304641860, "properties": {"railway": "subway_entrance", "ref": "17", "name": "\u6771\u5340\u5730\u4e0b\u885717\u865f\u51fa\u5165\u53e3"}}, {"geometry": {"type": "Point", "coordinates": [121.471911, 25.0302778]}, "type": "Feature", "id": 3343597134, "properties": {"railway": "subway_entrance", "ref": "1", "name": "\u51fa\u53e31 (\u83ef\u6c5f\u5e02\u5834)"}}, {"geometry": {"type": "Point", "coordinates": [121.4719266, 25.0297928]}, "type": "Feature", "id": 3343597135, "properties": {"railway": "subway_entrance", "ref": "2", "name": "\u51fa\u53e32 (\u677f\u6a4b\u8fb2\u6751\u516c\u5712)"}}, {"geometry": {"type": "Point", "coordinates": [121.4726701, 25.0297457]}, "type": "Feature", "id": 3343597136, "properties": {"railway": "subway_entrance", "ref": "4", "name": "\u51fa\u53e34 (\u677e\u67cf\u8857)"}}, {"geometry": {"type": "Point", "coordinates": [121.5438665, 25.0329033]}, "type": "Feature", "id": 3355534993, "properties": {"railway": "subway_entrance", "ref": "5"}}, {"geometry": {"type": "Point", "coordinates": [121.5425361, 25.0331923]}, "type": "Feature", "id": 3355534994, "properties": {"railway": "subway_entrance", "ref": "3"}}, {"geometry": {"type": "Point", "coordinates": [121.543982, 25.0330614]}, "type": "Feature", "id": 3355535193, "properties": {"railway": "subway_entrance", "ref": "4"}}, {"geometry": {"type": "Point", "coordinates": [121.5419974, 25.0336366]}, "type": "Feature", "id": 3355535194, "properties": {"railway": "subway_entrance", "ref": "1"}}, {"geometry": {"type": "Point", "coordinates": [121.5437519, 25.0338599]}, "type": "Feature", "id": 3355535293, "properties": {"railway": "subway_entrance", "ref": "6"}}, {"geometry": {"type": "Point", "coordinates": [121.5416244, 25.0336221]}, "type": "Feature", "id": 3355535493, "properties": {"railway": "subway_entrance", "ref": "2"}}, {"geometry": {"type": "Point", "coordinates": [121.5046408, 24.9937606]}, "type": "Feature", "id": 3432650393, "properties": {"railway": "subway_entrance"}}, {"geometry": {"type": "Point", "coordinates": [121.4593749, 25.0089461]}, "type": "Feature", "id": 3444714021, "properties": {"railway": "subway_entrance", "name:en": "Exit 2", "name": "\u5e9c\u4e2d\u7ad9\u51fa\u53e32"}}, {"geometry": {"type": "Point", "coordinates": [121.4590683, 25.0084547]}, "type": "Feature", "id": 3444714022, "properties": {"railway": "subway_entrance", "name:en": "Exit 1", "name": "\u5e9c\u4e2d\u7ad9\u51fa\u53e31"}}, {"geometry": {"type": "Point", "coordinates": [121.4589507, 25.0092355]}, "type": "Feature", "id": 3444714023, "properties": {"railway": "subway_entrance", "name": "\u5e9c\u4e2d\u7ad9\u51fa\u53e33"}}, {"geometry": {"type": "Point", "coordinates": [121.5699055, 25.0325057]}, "type": "Feature", "id": 3476331308, "properties": {"railway": "subway_entrance", "name:en": "Exit 2", "name": "\u8c61\u5c71\u7ad92\u865f\u51fa\u53e3"}}, {"geometry": {"type": "Point", "coordinates": [121.5167109, 25.0461019]}, "type": "Feature", "id": 3505143493, "properties": {"railway": "subway_entrance", "ref": "M6"}}, {"geometry": {"type": "Point", "coordinates": [121.5160992, 25.0489928]}, "type": "Feature", "id": 3505143496, "properties": {"railway": "subway_entrance", "ref": "Y7"}}, {"geometry": {"type": "Point", "coordinates": [121.5185202, 25.0460288]}, "type": "Feature", "id": 3505143594, "properties": {"railway": "subway_entrance", "ref": "M7"}}, {"geometry": {"type": "Point", "coordinates": [121.5122444, 25.0499766]}, "type": "Feature", "id": 3505143596, "properties": {"railway": "subway_entrance", "ref": "Y21"}}, {"geometry": {"type": "Point", "coordinates": [121.5172962, 25.0464864]}, "type": "Feature", "id": 3505143693, "properties": {"railway": "subway_entrance", "ref": "M4"}}, {"geometry": {"type": "Point", "coordinates": [121.5176653, 25.0483135]}, "type": "Feature", "id": 3505143694, "properties": {"railway": "subway_entrance", "ref": "Y4"}}, {"geometry": {"type": "Point", "coordinates": [121.5177552, 25.0463227]}, "type": "Feature", "id": 3505143793, "properties": {"railway": "subway_entrance", "ref": "3"}}, {"geometry": {"type": "Point", "coordinates": [121.517446, 25.0483379]}, "type": "Feature", "id": 3505143795, "properties": {"railway": "subway_entrance", "ref": "Y6"}}, {"geometry": {"type": "Point", "coordinates": [121.5162147, 25.0467406]}, "type": "Feature", "id": 3505143993, "properties": {"railway": "subway_entrance", "ref": "M5"}}, {"geometry": {"type": "Point", "coordinates": [121.5187219, 25.0486446]}, "type": "Feature", "id": 3505143997, "properties": {"railway": "subway_entrance", "ref": "Y1"}}, {"geometry": {"type": "Point", "coordinates": [121.5158403, 25.0490446]}, "type": "Feature", "id": 3505143998, "properties": {"railway": "subway_entrance", "ref": "Y9"}}, {"geometry": {"type": "Point", "coordinates": [121.5115935, 25.0497428]}, "type": "Feature", "id": 3505144000, "properties": {"railway": "subway_entrance", "ref": "Y26"}}, {"geometry": {"type": "Point", "coordinates": [121.5106221, 25.0502753]}, "type": "Feature", "id": 3505144002, "properties": {"railway": "subway_entrance", "ref": "Y27"}}, {"geometry": {"type": "Point", "coordinates": [121.513578, 25.049537]}, "type": "Feature", "id": 3505144196, "properties": {"railway": "subway_entrance", "ref": "Y17"}}, {"geometry": {"type": "Point", "coordinates": [121.5129463, 25.0497129]}, "type": "Feature", "id": 3505144197, "properties": {"railway": "subway_entrance", "ref": "Y19"}}, {"geometry": {"type": "Point", "coordinates": [121.5161023, 25.0486117]}, "type": "Feature", "id": 3505145593, "properties": {"railway": "subway_entrance", "ref": "Y10"}}, {"geometry": {"type": "Point", "coordinates": [121.5155204, 25.0487107]}, "type": "Feature", "id": 3505145993, "properties": {"railway": "subway_entrance", "ref": "Y12"}}, {"geometry": {"type": "Point", "coordinates": [121.5116014, 25.0501217]}, "type": "Feature", "id": 3505145996, "properties": {"railway": "subway_entrance", "ref": "Y23"}}, {"geometry": {"type": "Point", "coordinates": [121.5112324, 25.0501921]}, "type": "Feature", "id": 3505146395, "properties": {"railway": "subway_entrance", "ref": "Y25"}}, {"geometry": {"type": "Point", "coordinates": [121.5631663, 25.0327981]}, "type": "Feature", "id": 3550277944, "properties": {"railway": "subway_entrance", "ref": "3"}}, {"geometry": {"type": "Point", "coordinates": [121.561445, 25.0328349]}, "type": "Feature", "id": 3550280123, "properties": {"railway": "subway_entrance", "ref": "2"}}, {"geometry": {"type": "Point", "coordinates": [121.552068, 25.0330411]}, "type": "Feature", "id": 3550879485, "properties": {"railway": "subway_entrance", "ref": "2"}}, {"geometry": {"type": "Point", "coordinates": [121.5532176, 25.0330204]}, "type": "Feature", "id": 3550879486, "properties": {"railway": "subway_entrance", "ref": "3"}}, {"geometry": {"type": "Point", "coordinates": [121.5534781, 25.0330057]}, "type": "Feature", "id": 3550879487, "properties": {"railway": "subway_entrance", "ref": "4"}}, {"geometry": {"type": "Point", "coordinates": [121.5535107, 25.0333509]}, "type": "Feature", "id": 3550879488, "properties": {"railway": "subway_entrance", "ref": "5"}}, {"geometry": {"type": "Point", "coordinates": [121.5526118, 25.0334276]}, "type": "Feature", "id": 3550879489, "properties": {"railway": "subway_entrance", "ref": "1"}}, {"geometry": {"type": "Point", "coordinates": [121.5158831, 25.0464037]}, "type": "Feature", "id": 3556410802, "properties": {"railway": "subway_entrance", "ref": "Z2"}}, {"geometry": {"type": "Point", "coordinates": [121.515186, 25.0465404]}, "type": "Feature", "id": 3556411099, "properties": {"railway": "subway_entrance", "ref": "Z4"}}, {"geometry": {"type": "Point", "coordinates": [121.4183676, 24.9587345]}, "type": "Feature", "id": 3636598298, "properties": {"railway": "subway_entrance", "ref": "2", "name": "\u51fa\u53e32 (\u6c38\u798f\u5ca9\u7956\u5e2b\u5edf)"}}, {"geometry": {"type": "Point", "coordinates": [121.4195323, 24.959472]}, "type": "Feature", "id": 3636598299, "properties": {"wheelchair": "yes", "railway": "subway_entrance", "ref": "3", "name": "\u51fa\u53e33 (\u5927\u6696\u8def)"}}, {"geometry": {"type": "Point", "coordinates": [121.4197795, 24.9602552]}, "type": "Feature", "id": 3636598300, "properties": {"wheelchair": "yes", "railway": "subway_entrance", "ref": "4", "name": "\u51fa\u53e34 (\u4e09\u6c11\u8def)"}}, {"geometry": {"type": "Point", "coordinates": [121.5745438, 25.0410065]}, "type": "Feature", "id": 3689300568, "properties": {"railway": "subway_entrance", "ref": "1", "name": "\u51fa\u53e31\uff08\u677e\u4fe1\u8def\uff09"}}, {"geometry": {"type": "Point", "coordinates": [121.5751545, 25.0407292]}, "type": "Feature", "id": 3689309410, "properties": {"railway": "subway_entrance", "ref": "2", "name": "\u51fa\u53e32\uff08\u677e\u5c71\u5de5\u8fb2\uff09"}}, {"geometry": {"type": "Point", "coordinates": [121.5766386, 25.0409456]}, "type": "Feature", "id": 3689309411, "properties": {"railway": "subway_entrance", "ref": "5", "name": "\u51fa\u53e35\uff08\u5bcc\u53f0\u570b\u5b85\uff09"}}, {"geometry": {"type": "Point", "coordinates": [121.5766329, 25.0407138]}, "type": "Feature", "id": 3689309412, "properties": {"railway": "subway_entrance", "ref": "4", "name": "\u51fa\u53e34\uff08\u864e\u6797\u8857\uff09"}}, {"geometry": {"type": "Point", "coordinates": [121.5762974, 25.0407215]}, "type": "Feature", "id": 3689309413, "properties": {"railway": "subway_entrance", "ref": "3", "name": "\u51fa\u53e33\uff08\u5fe0\u5b5d\u6771\u8def\u4e94\u6bb5\uff09"}}, {"geometry": {"type": "Point", "coordinates": [121.6077595, 25.0520214]}, "type": "Feature", "id": 3689350528, "properties": {"ref:ruian:addr": "2", "railway": "subway_entrance", "name": "\u51fa\u53e32\uff08\u570b\u5bb6\u6587\u5b98\u5b78\u9662\uff09"}}, {"geometry": {"type": "Point", "coordinates": [121.6065337, 25.0518221]}, "type": "Feature", "id": 3689350529, "properties": {"railway": "subway_entrance", "ref": "1", "name": "\u51fa\u53e31\uff08\u5fe0\u5b5d\u6771\u8def\u4e03\u6bb5\uff09"}}, {"geometry": {"type": "Point", "coordinates": [121.6081591, 25.0724768]}, "type": "Feature", "id": 3689381737, "properties": {"railway": "subway_entrance", "ref": "1", "name": "\u51fa\u53e31"}}, {"geometry": {"type": "Point", "coordinates": [121.6073115, 25.0724598]}, "type": "Feature", "id": 3689381738, "properties": {"railway": "subway_entrance", "ref": "2", "name": "\u51fa\u53e32"}}, {"geometry": {"type": "Point", "coordinates": [121.6026232, 25.0838692]}, "type": "Feature", "id": 3689390420, "properties": {"railway": "subway_entrance", "ref": "1", "name": "\u51fa\u53e31"}}, {"geometry": {"type": "Point", "coordinates": [121.6022772, 25.0832558]}, "type": "Feature", "id": 3689390421, "properties": {"railway": "subway_entrance", "ref": "2", "name": "\u51fa\u53e32"}}, {"geometry": {"type": "Point", "coordinates": [121.5413273, 24.9668207]}, "type": "Feature", "id": 3695574989, "properties": {"access": "emergency", "railway": "subway_entrance"}}, {"geometry": {"type": "Point", "coordinates": [121.5945455, 25.0835151]}, "type": "Feature", "id": 3699438548, "properties": {"railway": "subway_entrance", "ref": "2", "name": "\u5167\u6e56\u6377\u904b\u7ad92\u865f\u51fa\u53e3"}}, {"geometry": {"type": "Point", "coordinates": [121.5202121, 25.071825]}, "type": "Feature", "id": 3699440333, "properties": {"railway": "subway_entrance", "ref": "2", "name": "\u6377\u904b\u5713\u5c71\u7ad9\u51fa\u53e32"}}, {"geometry": {"type": "Point", "coordinates": [121.5200377, 25.0707633]}, "type": "Feature", "id": 3699440334, "properties": {"railway": "subway_entrance", "ref": "1", "name": "\u6377\u904b\u5713\u5c71\u7ad9\u51fa\u53e31"}}]}